GLOBALSTAR M084         
1 38040U 11080A   24222.47175999 -.00000081  00000+0  12773-3 0  9990
2 38040  52.0000 277.4527 0000694 110.2835 262.6954 12.62265390583586
GLOBALSTAR M080         
1 38041U 11080B   24221.92596476 -.00000081  00000+0  12950-3 0  9994
2 38041  52.0058 280.6113 0000700  87.7700  83.9957 12.62263700583359
GLOBALSTAR M082         
1 38042U 11080C   24221.61906174 -.00000100  00000+0  23099-4 0  9990
2 38042  52.0050 236.9572 0000512 204.7804 311.6838 12.62264905584024
GLOBALSTAR M092         
1 38043U 11080D   24221.82904314 -.00000077  00000+0  15107-3 0  9991
2 38043  52.0107 326.6778 0000793 112.9768  38.3246 12.62264766582505
GLOBALSTAR M090         
1 38044U 11080E   24221.56507126 -.00000102  00000+0  11556-4 0  9997
2 38044  51.9859 231.3329 0000223 197.7697 312.9358 12.62265899584170
GLOBALSTAR M086         
1 38045U 11080F   24221.59183524 -.00000100  00000+0  18883-4 0  9991
2 38045  51.9870 231.7771 0000840 353.9154 159.2159 12.62265259584180
GLOBALSTAR M097         
1 39072U 13005A   24221.90181620 -.00000083  00000+0  11400-3 0  9998
2 39072  52.0037 145.0645 0000442  15.2772 344.8108 12.62269183531376
GLOBALSTAR M093         
1 39073U 13005B   24222.19154326 -.00000071  00000+0  18238-3 0  9997
2 39073  51.9805 137.9811 0000530   7.9960 352.0915 12.62276619531489
